[{"OBJECT_NAME":"STARLINK-30372","OBJECT_ID":"2023-134U","EPOCH":"2026-03-09T01:41:25.416384","MEAN_MOTION":15.27591071,"ECCENTRICITY":0.00021652,"INCLINATION":43.0069,"RA_OF_ASC_NODE":81.8748,"ARG_OF_PERICENTER":274.4128,"MEAN_ANOMALY":85.6476,"EPHEMERIS_TYPE":0,"CLASSIFICATION_TYPE":"U","NORAD_CAT_ID":57789,"ELEMENT_SET_NO":999,"REV_AT_EPOCH":14077,"BSTAR":4.985686e-6,"MEAN_MOTION_DOT":-1.25e-6,"MEAN_MOTION_DDOT":0},{"OBJECT_NAME":"TEVEL2-6","OBJECT_ID":"2025-052F","EPOCH":"2026-03-09T15:35:24.554400","MEAN_MOTION":15.30760889,"ECCENTRICITY":0.0004769,"INCLINATION":97.4016,"RA_OF_ASC_NODE":325.0381,"ARG_OF_PERICENTER":95.6604,"MEAN_ANOMALY":264.5181,"EPHEMERIS_TYPE":0,"CLASSIFICATION_TYPE":"U","NORAD_CAT_ID":63215,"ELEMENT_SET_NO":999,"REV_AT_EPOCH":5486,"BSTAR":0.00070909,"MEAN_MOTION_DOT":0.00021046,"MEAN_MOTION_DDOT":0}]
